[{"OBJECT_NAME":"STARLINK-5776","OBJECT_ID":"2023-090BC","EPOCH":"2026-03-09T21:15:19.880928","MEAN_MOTION":15.03558635,"ECCENTRICITY":0.0008105,"INCLINATION":42.9995,"RA_OF_ASC_NODE":260.4887,"ARG_OF_PERICENTER":176.0826,"MEAN_ANOMALY":184.0081,"EPHEMERIS_TYPE":0,"CLASSIFICATION_TYPE":"U","NORAD_CAT_ID":57151,"ELEMENT_SET_NO":999,"REV_AT_EPOCH":15059,"BSTAR":0.0035274158,"MEAN_MOTION_DOT":0.00049131,"MEAN_MOTION_DDOT":0},{"OBJECT_NAME":"SL-8 DEB","OBJECT_ID":"1976-098E","EPOCH":"2026-03-09T08:07:12.416160","MEAN_MOTION":15.06605169,"ECCENTRICITY":0.00102283,"INCLINATION":74.028,"RA_OF_ASC_NODE":26.283,"ARG_OF_PERICENTER":218.296,"MEAN_ANOMALY":294.2383,"EPHEMERIS_TYPE":0,"CLASSIFICATION_TYPE":"U","NORAD_CAT_ID":18504,"ELEMENT_SET_NO":999,"REV_AT_EPOCH":18055,"BSTAR":0.0011587434,"MEAN_MOTION_DOT":0.00017191,"MEAN_MOTION_DDOT":0}]
